start=new Date('2022-12-22T00:00:00.000Z').valueOf();
sats=[{"LAUNCH_DATE":"2022-08-19","OBJECT_TYPE":"PAYLOAD","REV_AT_EPOCH":"1913","BSTAR":"0.00002370500000","TLE_LINE1":"1 53560U 22101AK  22355.19405155  .00000089  00000-0  23705-4 0  9990","PERIAPSIS":"538.521","APOAPSIS":"540.991","COUNTRY_CODE":"US","CENTER_NAME":"EARTH","FILE":"3716551","TLE_LINE2":"2 53560  53.2174 286.8078 0001785  60.0782 300.0388 15.08836419 19137","SITE":"AFETR","OBJECT_NAME":"STARLINK-4564","OBJECT_ID":"2022-101AK","SEMIMAJOR_AXIS":"6917.891","INCLINATION":"53.2174","MEAN_MOTION_DDOT":"0.0000000000000","MEAN_MOTION":"15.08836419","GP_ID":"221119861","ECCENTRICITY":"0.00017850","PERIOD":"95.438","MEAN_ANOMALY":"300.0388","MEAN_ELEMENT_THEORY":"SGP4","EPHEMERIS_TYPE":"0","ELEMENT_SET_NO":"999","DECAY_DATE":null,"REF_FRAME":"TEME","ARG_OF_PERICENTER":"60.0782","RA_OF_ASC_NODE":"286.8078","MEAN_MOTION_DOT":"0.00000089","TIME_SYSTEM":"UTC","RCS_SIZE":"LARGE","CLASSIFICATION_TYPE":"U","EPOCH":"2022-12-21T04:39:26.053920","NORAD_CAT_ID":"53560"},{"PERIAPSIS":"538.286","BSTAR":"-0.00010501000000","TLE_LINE1":"1 53561U 22101AL  22355.34398645 -.00001959  00000-0 -10501-3 0  9991","REV_AT_EPOCH":"1902","OBJECT_TYPE":"PAYLOAD","LAUNCH_DATE":"2022-08-19","COUNTRY_CODE":"US","APOAPSIS":"541.261","TLE_LINE2":"2 53561  53.2186 295.9673 0002150  36.3458 323.7680 15.08830807 19026","FILE":"3716551","CENTER_NAME":"EARTH","INCLINATION":"53.2186","SEMIMAJOR_AXIS":"6917.908","OBJECT_ID":"2022-101AL","SITE":"AFETR","OBJECT_NAME":"STARLINK-4563","ECCENTRICITY":"0.00021500","MEAN_MOTION_DDOT":"0.0000000000000","MEAN_MOTION":"15.08830807","GP_ID":"221120072","MEAN_ELEMENT_THEORY":"SGP4","EPHEMERIS_TYPE":"0","MEAN_ANOMALY":"323.7680","PERIOD":"95.438","TIME_SYSTEM":"UTC","ARG_OF_PERICENTER":"36.3458","RA_OF_ASC_NODE":"295.9673","MEAN_MOTION_DOT":"-0.00001959","ELEMENT_SET_NO":"999","DECAY_DATE":null,"REF_FRAME":"TEME","NORAD_CAT_ID":"53561","EPOCH":"2022-12-21T08:15:20.429280","RCS_SIZE":"LARGE","CLASSIFICATION_TYPE":"U"},{"EPOCH":"2022-12-21T12:27:07.723296","NORAD_CAT_ID":"53562","CLASSIFICATION_TYPE":"U","RCS_SIZE":"LARGE","MEAN_MOTION_DOT":"0.00000042","RA_OF_ASC_NODE":"285.2861","ARG_OF_PERICENTER":"87.9163","TIME_SYSTEM":"UTC","DECAY_DATE":null,"REF_FRAME":"TEME","ELEMENT_SET_NO":"999","EPHEMERIS_TYPE":"0","MEAN_ELEMENT_THEORY":"SGP4","PERIOD":"95.437","MEAN_ANOMALY":"272.1991","GP_ID":"221124491","MEAN_MOTION":"15.08850236","MEAN_MOTION_DDOT":"0.0000000000000","ECCENTRICITY":"0.00014090","SEMIMAJOR_AXIS":"6917.849","INCLINATION":"53.2176","OBJECT_NAME":"STARLINK-4565","SITE":"AFETR","OBJECT_ID":"2022-101AM","TLE_LINE2":"2 53562  53.2176 285.2861 0001409  87.9163 272.1991 15.08850236 19185","CENTER_NAME":"EARTH","FILE":"3716833","APOAPSIS":"540.689","COUNTRY_CODE":"US","TLE_LINE1":"1 53562U 22101AM  22355.51883939  .00000042  00000-0  20726-4 0  9997","BSTAR":"0.00002072600000","PERIAPSIS":"538.739","OBJECT_TYPE":"PAYLOAD","LAUNCH_DATE":"2022-08-19","REV_AT_EPOCH":"1918"},{"REF_FRAME":"TEME","DECAY_DATE":null,"ELEMENT_SET_NO":"999","TIME_SYSTEM":"UTC","MEAN_MOTION_DOT":"0.00000567","ARG_OF_PERICENTER":"52.5894","RA_OF_ASC_NODE":"285.3436","CLASSIFICATION_TYPE":"U","RCS_SIZE":"LARGE","NORAD_CAT_ID":"53563","EPOCH":"2022-12-21T12:41:39.826752","ECCENTRICITY":"0.00018570","GP_ID":"221124183","MEAN_MOTION":"15.08847207","MEAN_MOTION_DDOT":"0.0000000000000","MEAN_ANOMALY":"307.5267","PERIOD":"95.437","EPHEMERIS_TYPE":"0","MEAN_ELEMENT_THEORY":"SGP4","FILE":"3716833","CENTER_NAME":"EARTH","TLE_LINE2":"2 53563  53.2187 285.3436 0001857  52.5894 307.5267 15.08847207 19186","OBJECT_ID":"2022-101AN","OBJECT_NAME":"STARLINK-4561","SITE":"AFETR","INCLINATION":"53.2187","SEMIMAJOR_AXIS":"6917.858","REV_AT_EPOCH":"1918","OBJECT_TYPE":"PAYLOAD","LAUNCH_DATE":"2022-08-19","PERIAPSIS":"538.439","TLE_LINE1":"1 53563U 22101AN  22355.52893318  .00000567  00000-0  53730-4 0  9994","BSTAR":"0.00005373000000","COUNTRY_CODE":"US","APOAPSIS":"541.008"},{"MEAN_ANOMALY":"311.1088","PERIOD":"95.439","EPHEMERIS_TYPE":"0","MEAN_ELEMENT_THEORY":"SGP4","ECCENTRICITY":"0.00018200","GP_ID":"221120313","MEAN_MOTION":"15.08823072","MEAN_MOTION_DDOT":"0.0000000000000","CLASSIFICATION_TYPE":"U","RCS_SIZE":"LARGE","NORAD_CAT_ID":"53564","EPOCH":"2022-12-21T12:20:27.433824","REF_FRAME":"TEME","DECAY_DATE":null,"ELEMENT_SET_NO":"999","TIME_SYSTEM":"UTC","MEAN_MOTION_DOT":"-0.00003403","ARG_OF_PERICENTER":"49.0061","RA_OF_ASC_NODE":"285.2542","COUNTRY_CODE":"US","APOAPSIS":"541.056","REV_AT_EPOCH":"1918","OBJECT_TYPE":"PAYLOAD","LAUNCH_DATE":"2022-08-19","PERIAPSIS":"538.538","TLE_LINE1":"1 53564U 22101AP  22355.51420641 -.00003403  00000-0 -19591-3 0  9999","BSTAR":"-0.00019591000000","OBJECT_ID":"2022-101AP","OBJECT_NAME":"STARLINK-4577","SITE":"AFETR","INCLINATION":"53.2162","SEMIMAJOR_AXIS":"6917.932","FILE":"3716551","CENTER_NAME":"EARTH","TLE_LINE2":"2 53564  53.2162 285.2542 0001820  49.0061 311.1088 15.08823072 19180"},{"ELEMENT_SET_NO":"999","DECAY_DATE":null,"REF_FRAME":"TEME","TIME_SYSTEM":"UTC","ARG_OF_PERICENTER":"86.2351","RA_OF_ASC_NODE":"285.2978","MEAN_MOTION_DOT":"0.00001418","RCS_SIZE":"LARGE","CLASSIFICATION_TYPE":"U","NORAD_CAT_ID":"53565","EPOCH":"2022-12-21T12:31:03.225504","ECCENTRICITY":"0.00013580","MEAN_MOTION_DDOT":"0.0000000000000","GP_ID":"221124500","MEAN_MOTION":"15.08849866","MEAN_ANOMALY":"273.8796","PERIOD":"95.437","MEAN_ELEMENT_THEORY":"SGP4","EPHEMERIS_TYPE":"0","FILE":"3716823","CENTER_NAME":"EARTH","TLE_LINE2":"2 53565  53.2184 285.2978 0001358  86.2351 273.8796 15.08849866 19188","OBJECT_ID":"2022-101AQ","SITE":"AFETR","OBJECT_NAME":"STARLINK-4575","INCLINATION":"53.2184","SEMIMAJOR_AXIS":"6917.850","REV_AT_EPOCH":"1918","LAUNCH_DATE":"2022-08-19","OBJECT_TYPE":"PAYLOAD","PERIAPSIS":"538.776","BSTAR":"0.00010713000000","TLE_LINE1":"1 53565U 22101AQ  22355.52156511  .00001418  00000-0  10713-3 0  9992","COUNTRY_CODE":"US","APOAPSIS":"540.655"},{"ELEMENT_SET_NO":"999","DECAY_DATE":null,"REF_FRAME":"TEME","ARG_OF_PERICENTER":"87.4620","RA_OF_ASC_NODE":"285.2095","MEAN_MOTION_DOT":"-0.00000549","TIME_SYSTEM":"UTC","RCS_SIZE":"LARGE","CLASSIFICATION_TYPE":"U","EPOCH":"2022-12-21T12:09:50.441184","NORAD_CAT_ID":"53566","MEAN_MOTION_DDOT":"0.0000000000000","GP_ID":"221124195","MEAN_MOTION":"15.08838614","ECCENTRICITY":"0.00015180","PERIOD":"95.438","MEAN_ANOMALY":"272.6546","MEAN_ELEMENT_THEORY":"SGP4","EPHEMERIS_TYPE":"0","CENTER_NAME":"EARTH","FILE":"3716823","TLE_LINE2":"2 53566  53.2180 285.2095 0001518  87.4620 272.6546 15.08838614 19184","SITE":"AFETR","OBJECT_NAME":"STARLINK-4576","OBJECT_ID":"2022-101AR","SEMIMAJOR_AXIS":"6917.885","INCLINATION":"53.2180","OBJECT_TYPE":"PAYLOAD","LAUNCH_DATE":"2022-08-19","REV_AT_EPOCH":"1918","BSTAR":"-0.00001637200000","TLE_LINE1":"1 53566U 22101AR  22355.50683381 -.00000549  00000-0 -16372-4 0  9995","PERIAPSIS":"538.699","APOAPSIS":"540.800","COUNTRY_CODE":"US"},{"INCLINATION":"53.2153","SEMIMAJOR_AXIS":"6917.914","OBJECT_ID":"2022-101AS","OBJECT_NAME":"STARLINK-4585","SITE":"AFETR","TLE_LINE2":"2 53567  53.2153 285.2707 0001948  34.6289 325.4830 15.08829167 19183","FILE":"3716823","CENTER_NAME":"EARTH","COUNTRY_CODE":"US","APOAPSIS":"541.126","PERIAPSIS":"538.431","TLE_LINE1":"1 53567U 22101AS  22355.51788097 -.00001906  00000-0 -10171-3 0  9995","BSTAR":"-0.00010171000000","REV_AT_EPOCH":"1918","LAUNCH_DATE":"2022-08-19","OBJECT_TYPE":"PAYLOAD","NORAD_CAT_ID":"53567","EPOCH":"2022-12-21T12:25:44.915808","CLASSIFICATION_TYPE":"U","RCS_SIZE":"LARGE","TIME_SYSTEM":"UTC","MEAN_MOTION_DOT":"-0.00001906","RA_OF_ASC_NODE":"285.2707","ARG_OF_PERICENTER":"34.6289","DECAY_DATE":null,"REF_FRAME":"TEME","ELEMENT_SET_NO":"999","EPHEMERIS_TYPE":"0","MEAN_ELEMENT_THEORY":"SGP4","MEAN_ANOMALY":"325.4830","PERIOD":"95.438","ECCENTRICITY":"0.00019480","MEAN_MOTION":"15.08829167","GP_ID":"221124197","MEAN_MOTION_DDOT":"0.0000000000000"},{"REF_FRAME":"TEME","DECAY_DATE":null,"ELEMENT_SET_NO":"999","TIME_SYSTEM":"UTC","MEAN_MOTION_DOT":"-0.00002701","ARG_OF_PERICENTER":"48.0214","RA_OF_ASC_NODE":"286.3300","CLASSIFICATION_TYPE":"U","RCS_SIZE":"LARGE","NORAD_CAT_ID":"53568","EPOCH":"2022-12-21T05:32:22.720128","ECCENTRICITY":"0.00018850","GP_ID":"221119862","MEAN_MOTION":"15.08821747","MEAN_MOTION_DDOT":"0.0000000000000","MEAN_ANOMALY":"312.0939","PERIOD":"95.439","EPHEMERIS_TYPE":"0","MEAN_ELEMENT_THEORY":"SGP4","FILE":"3716551","CENTER_NAME":"EARTH","TLE_LINE2":"2 53568  53.2159 286.3300 0001885  48.0214 312.0939 15.08821747 19838","OBJECT_ID":"2022-101AT","OBJECT_NAME":"STARLINK-4583","SITE":"AFETR","INCLINATION":"53.2159","SEMIMAJOR_AXIS":"6917.936","REV_AT_EPOCH":"1983","LAUNCH_DATE":"2022-08-19","OBJECT_TYPE":"PAYLOAD","PERIAPSIS":"538.497","TLE_LINE1":"1 53568U 22101AT  22355.23081852 -.00002701  00000-0 -15173-3 0  9991","BSTAR":"-0.00015173000000","COUNTRY_CODE":"US","APOAPSIS":"541.105"},{"CLASSIFICATION_TYPE":"U","RCS_SIZE":"LARGE","EPOCH":"2022-12-21T12:15:09.053280","NORAD_CAT_ID":"53569","DECAY_DATE":null,"REF_FRAME":"TEME","ELEMENT_SET_NO":"999","MEAN_MOTION_DOT":"-0.00000339","ARG_OF_PERICENTER":"60.2455","RA_OF_ASC_NODE":"285.2322","TIME_SYSTEM":"UTC","PERIOD":"95.438","MEAN_ANOMALY":"299.8716","EPHEMERIS_TYPE":"0","MEAN_ELEMENT_THEORY":"SGP4","MEAN_MOTION":"15.08838784","GP_ID":"221124511","MEAN_MOTION_DDOT":"0.0000000000000","ECCENTRICITY":"0.00017940","OBJECT_NAME":"STARLINK-4582","SITE":"AFETR","OBJECT_ID":"2022-101AU","SEMIMAJOR_AXIS":"6917.884","INCLINATION":"53.2186","CENTER_NAME":"EARTH","FILE":"3716823","TLE_LINE2":"2 53569  53.2186 285.2322 0001794  60.2455 299.8716 15.08838784 19185","APOAPSIS":"540.990","COUNTRY_CODE":"US","LAUNCH_DATE":"2022-08-19","OBJECT_TYPE":"PAYLOAD","REV_AT_EPOCH":"1918","TLE_LINE1":"1 53569U 22101AU  22355.51052145 -.00000339  00000-0 -31675-5 0  9998","BSTAR":"-0.00000316750000","PERIAPSIS":"538.508"}];
